IRIDIUM 159             
1 43578U 18061K   24121.77563194  .00000273  00000+0  90579-4 0  9990
2 43578  86.4015  21.5933 0002258  91.1770 268.9684 14.34216882301958
IRIDIUM 180             
1 43922U 19002A   24121.91465513  .00000104  00000+0  30194-4 0  9991
2 43922  86.3941 318.4410 0002230  90.3982 269.7469 14.34212628277587
IRIDIUM 176             
1 43923U 19002B   24121.94828528  .00000589  00000+0  89473-4 0  9995
2 43923  86.6068 318.4522 0002409  93.9878 266.1614 14.72235780284897
IRIDIUM 168             
1 43924U 19002C   24121.90831016  .00000145  00000+0  44556-4 0  9999
2 43924  86.3944 318.4991 0002117  91.8130 268.3309 14.34214867277564
IRIDIUM 173             
1 43925U 19002D   24121.82585749  .00000083  00000+0  22644-4 0  9995
2 43925  86.3940 318.4543 0002200  90.6491 269.4957 14.34216240277539
IRIDIUM 169             
1 43926U 19002E   24121.89694807  .00000516  00000+0  16220-3 0  9992
2 43926  86.4249 350.0376 0003827  58.0552 302.1018 14.38606026278477
IRIDIUM 172             
1 43927U 19002F   24121.81951665  .00000035  00000+0  52975-5 0  9998
2 43927  86.3941 318.4626 0002140  91.9694 268.1747 14.34215714277545
IRIDIUM 175             
1 43928U 19002G   24121.94249664  .00000712  00000+0  10903-3 0  9997
2 43928  86.1465 294.2553 0002355  88.8210 271.3276 14.72245231284889
